[Satellite]
VERSION=1.1
NAME=GLOBALSTAR M002
NICKNAME=GLOBALSTAR M002
TLE1=1 25164U 98008C   15054.27364464 -.00000059  00000-0  34569-3 0  9999
TLE2=2 25164  52.0030 324.5657 0001364  86.4339  59.3526 11.61452405746421
